POLYGON ((644051.269 5513894.605, 644052.028 5513893.909, 644046.312 5513888.311, 644045.235 5513889.071, 644043.959 5513889.487, 644042.635 5513889.611, 644041.897 5513889.514, 644041.223 5513889.313, 644040.572 5513888.988, 644039.707 5513888.394, 644039.114 5513887.874, 644038.742 5513887.423, 644038.380 5513886.824, 644038.101 5513886.116, 644037.965 5513885.434, 644037.937 5513884.800, 644038.163 5513883.557, 644038.771 5513882.333, 644039.579 5513881.266, 644041.175 5513879.629, 644040.420 5513878.973, 644040.479 5513878.908, 644041.302 5513879.677, 644042.203 5513880.350, 644043.113 5513880.895, 644044.085 5513881.353, 644046.060 5513881.947, 644047.135 5513882.118, 644048.463 5513882.198, 644049.519 5513882.163, 644050.634 5513882.019, 644051.760 5513881.750, 644052.849 5513881.361, 644054.631 5513880.404, 644055.557 5513879.715, 644056.529 5513878.845, 644057.603 5513877.652, 644057.365 5513878.348, 644059.955 5513879.310, 644062.547 5513871.741, 644060.775 5513871.083, 644060.731 5513871.211, 644060.819 5513869.222, 644060.493 5513866.671, 644059.751 5513863.556, 644058.656 5513859.837, 644056.746 5513854.308, 644055.915 5513852.449, 644055.161 5513851.146, 644054.099 5513849.761, 644052.875 5513848.560, 644051.455 5513847.498, 644050.002 5513846.650, 644048.531 5513845.974, 644047.088 5513845.444, 644039.532 5513843.370, 644037.187 5513843.097, 644035.705 5513843.115, 644034.526 5513843.233, 644033.070 5513843.511, 644031.642 5513843.934, 644030.252 5513844.507, 644029.137 5513845.100, 644028.099 5513845.780, 644027.114 5513846.562, 644026.197 5513847.449, 644025.371 5513848.421, 644024.645 5513849.468, 644024.024 5513850.582, 644023.515 5513851.751, 644023.123 5513852.963, 644022.851 5513854.209, 644022.703 5513855.474, 644022.679 5513856.748, 644022.780 5513858.019, 644023.080 5513859.583, 644023.824 5513861.707, 644024.922 5513863.668, 644026.331 5513865.404, 644028.017 5513866.892, 644029.111 5513867.615, 644030.296 5513868.227, 644037.329 5513870.903, 644037.359 5513870.816, 644037.504 5513870.859, 644037.507 5513871.005, 644037.170 5513870.911, 644036.598 5513872.332, 644035.826 5513873.571, 644035.187 5513874.328, 644033.912 5513875.616, 644037.311 5513878.852, 644033.860 5513875.670, 644032.777 5513876.953, 644031.864 5513878.296, 644031.022 5513879.889, 644030.450 5513881.423, 644030.117 5513882.838, 644029.945 5513885.377, 644030.181 5513887.363, 644030.738 5513889.287, 644031.336 5513890.615, 644032.086 5513891.862, 644032.980 5513893.012, 644034.134 5513894.165, 644035.363 5513895.123, 644036.933 5513896.122, 644038.294 5513896.753, 644039.782 5513897.233, 644041.319 5513897.520, 644042.875 5513897.617, 644044.287 5513897.530, 644046.087 5513897.210, 644047.477 5513896.797, 644048.818 5513896.223, 644050.093 5513895.486, 644051.269 5513894.605), (644046.703 5513889.299, 644046.680 5513889.320, 644046.436 5513889.039, 644046.703 5513889.299), (644045.714 5513897.146, 644045.522 5513896.310, 644045.714 5513897.146, 644045.714 5513897.146), (644041.015 5513889.888, 644040.916 5513890.261, 644040.883 5513890.251, 644041.015 5513889.888), (644038.409 5513888.581, 644038.556 5513888.433, 644038.421 5513888.592, 644038.409 5513888.581), (644037.547 5513886.297, 644037.162 5513886.454, 644037.153 5513886.426, 644037.547 5513886.297), (644036.041 5513883.791, 644036.143 5513883.807, 644036.043 5513883.797, 644036.041 5513883.791), (644039.745 5513878.229, 644039.813 5513878.153, 644040.295 5513878.699, 644039.745 5513878.229), (644039.211 5513877.327, 644039.758 5513878.086, 644039.059 5513877.497, 644039.211 5513877.327), (644038.498 5513876.621, 644038.710 5513876.369, 644039.092 5513877.100, 644038.498 5513876.621), (644037.963 5513875.704, 644038.221 5513875.373, 644038.621 5513876.200, 644037.963 5513875.704), (644037.703 5513873.550, 644037.726 5513873.686, 644037.165 5513873.358, 644037.212 5513873.289, 644037.703 5513873.550), (644059.615 5513874.918, 644059.551 5513874.894, 644059.817 5513874.328, 644059.615 5513874.918), (644060.479 5513872.395, 644060.550 5513872.066, 644060.587 5513872.080, 644060.479 5513872.395), (644059.155 5513875.813, 644059.009 5513875.759, 644059.358 5513875.220, 644059.155 5513875.813), (644058.559 5513876.658, 644058.451 5513876.618, 644058.708 5513876.222, 644058.559 5513876.658), (644057.794 5513877.440, 644058.383 5513876.723, 644058.098 5513877.553, 644057.794 5513877.440), (644037.530 5513868.972, 644037.428 5513869.873, 644037.244 5513869.805, 644037.530 5513868.972), (644037.533 5513868.846, 644037.432 5513868.808, 644037.541 5513868.490, 644037.533 5513868.846), (644045.486 5513870.734, 644045.661 5513870.800, 644045.471 5513871.356, 644045.486 5513870.734), (644030.675 5513856.135, 644030.762 5513855.402, 644031.043 5513854.458, 644031.372 5513853.797, 644031.874 5513853.095, 644032.395 5513852.569, 644033.482 5513851.833, 644034.627 5513851.373, 644035.853 5513851.128, 644036.964 5513851.094, 644038.092 5513851.242, 644045.077 5513853.213, 644046.703 5513853.962, 644047.355 5513854.386, 644047.956 5513854.900, 644048.656 5513855.834, 644049.415 5513857.524, 644050.824 5513861.601, 644052.073 5513865.803, 644052.593 5513868.043, 644033.723 5513860.998, 644032.988 5513860.613, 644031.925 5513859.675, 644031.170 5513858.538, 644030.895 5513857.837, 644030.712 5513856.995, 644030.675 5513856.135), (644041.557 5513863.942, 644040.541 5513866.910, 644040.541 5513866.910, 644041.557 5513863.942), (644051.574 5513871.930, 644051.883 5513872.045, 644051.296 5513872.741, 644051.574 5513871.930), (644052.478 5513871.086, 644052.767 5513870.240, 644052.631 5513870.190, 644052.811 5513869.662, 644052.829 5513869.983, 644052.689 5513870.675, 644052.478 5513871.086), (644052.428 5513871.181, 644052.138 5513871.743, 644052.072 5513871.821, 644052.307 5513871.136, 644052.428 5513871.181), (644052.647 5513868.347, 644052.785 5513869.181, 644052.409 5513869.041, 644052.647 5513868.347), (644050.977 5513872.775, 644051.198 5513872.857, 644050.835 5513873.189, 644050.977 5513872.775), (644049.699 5513873.366, 644050.344 5513873.606, 644050.126 5513873.791, 644049.462 5513874.057, 644049.699 5513873.366), (644045.968 5513873.047, 644047.876 5513873.755, 644048.940 5513874.151, 644048.190 5513874.184, 644047.190 5513873.988, 644046.458 5513873.575, 644045.968 5513873.047), (644045.883 5513871.948, 644045.672 5513872.563, 644045.509 5513871.809, 644045.883 5513871.948), (644045.494 5513870.390, 644045.512 5513869.678, 644045.713 5513869.752, 644045.494 5513870.390), (644045.518 5513869.424, 644045.559 5513868.629, 644045.764 5513868.705, 644045.518 5513869.424), (644033.273 5513865.078, 644033.272 5513865.083, 644033.229 5513865.211, 644033.273 5513865.078))